OBJECT_NAME,OBJECT_ID,EPOCH,MEAN_MOTION,ECCENTRICITY,INCLINATION,RA_OF_ASC_NODE,ARG_OF_PERICENTER,MEAN_ANOMALY,EPHEMERIS_TYPE,CLASSIFICATION_TYPE,NORAD_CAT_ID,ELEMENT_SET_NO,REV_AT_EPOCH,BSTAR,MEAN_MOTION_DOT,MEAN_MOTION_DDOT
STARLINK-30470,2023-146B,2026-07-14T08:52:50.434752,15.27575821,.00006775,43.0010,318.5015,251.4219,108.6559,0,U,57892,999,15643,-.3207179E-5,-.35E-5,0
STARLINK-30473,2023-146C,2026-07-14T19:05:53.090304,15.27588178,.00010805,43.0020,316.4703,211.0143,149.0645,0,U,57893,999,15649,-.46072045E-4,-.153E-4,0
STARLINK-30443,2023-146D,2026-07-14T15:31:41.050560,15.27567405,.0000979,43.0021,317.1367,233.7247,126.3514,0,U,57894,999,15647,-.3597652E-4,-.1251E-4,0
STARLINK-30467,2023-146E,2026-07-14T08:58:24.918528,15.27571696,.00016565,43.0032,318.5355,309.5702,50.5003,0,U,57895,999,15642,-.8622616E-4,-.2634E-4,0
STARLINK-30469,2023-146F,2026-07-14T15:37:13.612800,15.27575241,.0000984,43.0025,317.1655,250.2095,109.8651,0,U,57896,999,15647,-.7760972E-5,-.475E-5,0
STARLINK-30474,2023-146G,2026-07-14T09:24:19.440288,15.27556492,.00020658,43.0087,318.6702,278.7138,81.3479,0,U,57897,999,15643,-.13227367E-3,-.3898E-4,0
STARLINK-30479,2023-146H,2026-07-14T18:54:47.564928,15.27583512,.00013423,43.0047,316.4764,278.1820,81.8879,0,U,57898,999,15649,.46917373E-4,.1029E-4,0
STARLINK-30481,2023-146J,2026-07-14T19:00:20.954880,15.27569493,.00021721,42.9984,316.4984,188.9362,171.1451,0,U,57899,999,15649,.877195E-6,-.238E-5,0
STARLINK-30457,2023-146K,2026-07-14T10:01:19.511616,15.27546346,.00022601,43.0043,318.8500,294.9238,65.1379,0,U,57900,999,15537,.11965269E-3,.3028E-4,0
STARLINK-30472,2023-146L,2026-07-14T15:23:07.933056,15.27573956,.0001088,43.0024,313.6791,249.4717,110.6018,0,U,57901,999,15545,-.22124653E-4,-.871E-5,0
STARLINK-30462,2023-146M,2026-07-14T09:46:30.128160,15.27578270,.00012296,43.0016,318.7756,256.3131,103.7584,0,U,57902,999,15639,.6499209E-5,-.83E-6,0
STARLINK-30449,2023-146N,2026-07-14T09:05:47.521536,15.27565867,.00011688,43.0020,318.5628,292.4682,67.6045,0,U,57903,999,15537,.67101463E-4,.1584E-4,0
STARLINK-30466,2023-146P,2026-07-14T09:52:03.681408,15.27581126,.00014411,43.0063,318.8113,261.2837,98.7851,0,U,57904,999,15537,-.70719399E-4,-.2208E-4,0
STARLINK-30428,2023-146R,2026-07-14T16:12:22.829472,15.27576830,.00014035,43.0030,317.3434,272.8008,87.2683,0,U,57906,999,15541,.22006821E-4,.343E-5,0
STARLINK-30482,2023-146S,2026-07-14T10:12:25.012800,15.27568527,.00010216,43.0010,318.9080,214.6833,145.3952,0,U,57907,999,15538,-.25601374E-4,-.966E-5,0
STARLINK-30464,2023-146T,2026-07-14T10:08:00.373056,15.27583451,.00024151,43.0056,322.2831,285.1264,74.9320,0,U,57908,999,15533,-.12981194E-3,-.3834E-4,0
STARLINK-30463,2023-146U,2026-07-14T08:49:20.976096,15.27575012,.00009662,42.9986,319.3269,206.6320,153.4483,0,U,57909,999,15536,-.7464679E-5,-.467E-5,0
STARLINK-30453,2023-146V,2026-07-14T10:00:10.230048,15.27631093,.00023901,43.0081,315.4509,284.4545,75.6042,0,U,57910,999,15541,-.4522215E-3,-.12706E-3,0
STARLINK-30478,2023-146W,2026-07-14T09:02:06.221760,15.27571431,.00015941,43.0035,318.5405,271.7863,88.2806,0,U,57911,999,15643,-.18086078E-4,-.76E-5,0
STARLINK-30477,2023-146X,2026-07-14T09:00:58.002912,15.27573139,.00028767,43.0086,315.1372,286.2741,73.7794,0,U,57912,999,15647,-.57088556E-4,-.1833E-4,0
STARLINK-30450,2023-147A,2026-07-14T16:26:55.091040,15.27582841,.00018254,43.0048,327.7284,270.5731,89.4912,0,U,57913,999,15602,.10830003E-4,.36E-6,0
STARLINK-30483,2023-147B,2026-07-15T00:38:19.311360,15.27571288,.0001217,43.0013,180.4967,265.1015,94.9698,0,U,57914,999,15778,-.23177E-4,-.9E-5,0
STARLINK-30454,2023-147C,2026-07-14T10:21:24.014880,15.27573458,.00012325,43.0035,329.2602,253.9251,106.1465,0,U,57915,999,15598,.21443762E-4,.328E-5,0
STARLINK-30501,2023-147E,2026-07-14T10:25:05.831328,15.27561273,.00011417,43.0002,329.2731,204.6363,155.4434,0,U,57917,999,15600,-.41782547E-3,-.11735E-3,0
STARLINK-30499,2023-147F,2026-07-15T00:12:36.697248,15.27572085,.0001498,43.0035,181.1906,275.9304,84.1377,0,U,57918,999,15780,-.17314E-4,-.738E-5,0
STARLINK-30496,2023-147G,2026-07-14T16:58:22.433376,15.27579454,.00013867,43.0029,327.8859,256.9282,103.1415,0,U,57919,999,15605,.267272E-4,.473E-5,0
STARLINK-30485,2023-147H,2026-07-14T10:47:18.921120,15.27584272,.000149,43.0059,329.4001,263.7287,96.3395,0,U,57920,999,15601,-.14301541E-3,-.4196E-4,0
STARLINK-30492,2023-147J,2026-07-14T09:22:24.501504,15.27566965,.0001333,43.0007,329.8080,260.1761,99.8940,0,U,57921,999,15597,-.37693934E-4,-.1299E-4,0
STARLINK-30440,2023-147L,2026-07-14T09:50:09.184128,15.27571472,.0001293,43.0037,329.9480,283.6769,76.3939,0,U,57923,999,15600,.37971316E-4,.783E-5,0
STARLINK-30487,2023-147M,2026-07-14T20:26:18.500064,15.27599354,.000144,43.0027,330.6336,282.5661,77.5030,0,U,57924,999,15603,.35766E-4,.723E-5,0
STARLINK-30452,2023-147N,2026-07-14T09:53:51.947520,15.27564604,.00014292,43.0053,329.9684,268.1206,91.9482,0,U,57925,999,15597,-.37736522E-4,-.13E-4,0
STARLINK-30468,2023-147P,2026-07-14T08:52:04.736928,15.27576554,.00017666,42.9989,333.0543,177.0464,183.0398,0,U,57926,999,15593,.3173375E-5,-.175E-5,0
STARLINK-30448,2023-147R,2026-07-14T17:03:12.999168,15.27574828,.0001795,43.0040,331.3128,268.3156,91.7490,0,U,57928,999,15598,-.13120016E-4,-.623E-5,0
STARLINK-30476,2023-147T,2026-07-15T04:00:03.000096,15.92753197,.0006119,42.9860,234.0516,150.3531,262.6661,0,U,57930,999,600,.63433E-3,.225132E-2,.27237E-4
STARLINK-30488,2023-147U,2026-07-14T10:52:08.533056,15.27577022,.00017387,43.0038,332.8149,270.4902,89.5751,0,U,57931,999,15597,-.2958538E-5,-.344E-5,0
STARLINK-30471,2023-147V,2026-07-14T10:04:44.710752,15.27576851,.00015526,43.0054,329.1713,275.3895,84.6780,0,U,57932,999,15598,-.29233632E-4,-.1067E-4,0
STARLINK-30461,2023-147W,2026-07-14T09:59:11.595552,15.27575871,.00015595,43.0052,329.1440,270.4076,89.6597,0,U,57933,999,15598,.2624764E-5,-.19E-5,0
STARLINK-30712,2023-148A,2026-07-15T03:31:34.743360,15.34392113,.0001446,53.1601,150.3605,97.5671,262.5496,0,U,57935,999,15796,.29293E-4,.613E-5,0
STARLINK-30716,2023-148B,2026-07-15T03:33:22.370112,15.30185310,.0001107,53.1609,152.3961,81.9393,278.1733,0,U,57936,999,15793,-.53593E-4,-.1945E-4,0
STARLINK-30400,2023-148C,2026-07-15T04:20:01.771584,15.34423169,.0001457,53.1591,150.5213,95.0922,265.0247,0,U,57937,999,15796,-.16266E-3,-.5872E-4,0
STARLINK-30710,2023-148D,2026-07-15T03:04:11.571744,15.34393835,.0001563,53.1598,140.3575,89.9114,270.2067,0,U,57938,999,15809,.28095E-4,.573E-5,0
STARLINK-30714,2023-148E,2026-07-15T03:22:25.833792,15.31997470,.0001885,53.1578,152.3340,95.1267,264.9949,0,U,57939,999,15793,.11348E-2,.35346E-3,0
STARLINK-30711,2023-148F,2026-07-15T04:00:03.000096,15.33529351,.0001478,53.1606,152.3206,63.8261,36.1289,0,U,57940,999,585,-.28841E-3,-.984E-4,0
STARLINK-30715,2023-148G,2026-07-15T03:59:10.220064,15.30173754,.0001807,53.1593,141.8692,88.1648,271.9560,0,U,57941,999,15808,.28946E-3,.8216E-4,0
STARLINK-30455,2023-148H,2026-07-15T03:20:46.612032,15.33547368,.0001346,53.1599,152.2942,92.9331,267.1825,0,U,57942,999,15793,.21189E-4,.324E-5,0
STARLINK-30456,2023-148J,2026-07-15T03:28:49.384992,15.30195652,.0001255,53.1610,152.4525,97.9680,262.1463,0,U,57943,999,15793,.26513E-4,.426E-5,0
STARLINK-30708,2023-148K,2026-07-15T04:01:52.158720,15.34394668,.0001451,53.1602,150.4736,82.5959,277.5209,0,U,57944,999,15796,.29674E-4,.626E-5,0
STARLINK-30705,2023-148L,2026-07-15T02:31:06.477312,15.34389296,.0001385,53.1595,150.7969,95.6032,264.5129,0,U,57945,999,15795,.60831E-4,.1679E-4,0
STARLINK-30704,2023-148M,2026-07-15T02:41:39.659712,15.34392031,.0001059,53.1593,228.3877,86.8158,273.2966,0,U,57946,999,15684,.31584E-4,.691E-5,0
STARLINK-30706,2023-148N,2026-07-15T03:25:30.904320,15.34400308,.0001407,53.1594,150.3109,83.5255,276.5908,0,U,57947,999,15796,.59842E-4,.1646E-4,0
STARLINK-30707,2023-148Q,2026-07-15T02:12:55.027584,15.34401454,.000116,53.1596,150.7121,95.0438,265.0697,0,U,57949,999,15795,.79868E-4,.2323E-4,0
STARLINK-30701,2023-148R,2026-07-15T03:07:28.492032,15.34396455,.0001997,53.1605,150.9383,78.6993,281.4234,0,U,57950,999,15795,-.19218E-4,-.1026E-4,0
STARLINK-30399,2023-148S,2026-07-15T03:34:35.873184,15.34393878,.0001386,53.1596,150.3376,82.0448,278.0711,0,U,57951,999,15796,.17639E-4,.22E-5,0
STARLINK-30713,2023-148T,2026-07-15T02:43:13.333728,15.34398392,.0001127,53.1599,150.8445,78.9948,281.1181,0,U,57952,999,15795,.13916E-4,.94E-6,0
STARLINK-30700,2023-148U,2026-07-15T02:02:24.686880,15.30189696,.0001212,53.1596,142.4700,92.6875,267.4265,0,U,57953,999,15806,.4391E-4,.941E-5,0
STARLINK-30703,2023-148V,2026-07-15T03:34:27.456096,15.34389183,.0001225,53.1592,140.2803,98.0212,262.0929,0,U,57954,999,15810,.66862E-4,.1883E-4,0
STARLINK-30702,2023-148W,2026-07-15T03:07:18.770304,15.34395582,.0001284,53.1599,140.8654,86.0870,274.0279,0,U,57955,999,15809,.53996E-4,.1448E-4,0
STARLINK-30396,2023-151A,2026-07-14T17:46:19.240608,15.27574343,.00012564,43.0019,338.8006,289.6129,70.4587,0,U,57964,999,15519,-.5755426E-5,-.42E-5,0
STARLINK-30524,2023-151B,2026-07-14T11:20:26.491776,15.27575262,.0001356,43.0026,340.2300,247.8619,112.2089,0,U,57965,999,15515,.29982426E-4,.563E-5,0
STARLINK-30521,2023-151C,2026-07-14T10:32:15.309312,15.27633136,.00020142,42.9976,339.9688,175.3175,184.7696,0,U,57966,999,15515,.31649293E-3,.8471E-4,0
STARLINK-30528,2023-151D,2026-07-14T10:37:52.910400,15.27554090,.00010087,43.0024,340.0014,213.9258,146.1529,0,U,57967,999,15515,.7324444E-4,.1752E-4,0
STARLINK-30495,2023-151E,2026-07-14T17:14:51.672768,15.27572009,.00010099,43.0029,338.6302,261.6446,98.4291,0,U,57968,999,15519,-.2449787E-5,-.329E-5,0
STARLINK-30494,2023-151G,2026-07-15T01:20:39.700320,15.27568710,.0001693,43.0022,191.2548,274.8731,85.1927,0,U,57970,999,15693,.47211E-4,.1037E-4,0
STARLINK-30498,2023-151H,2026-07-14T17:09:18.310464,15.27575853,.00017561,43.0061,338.5898,281.6077,78.4578,0,U,57971,999,15519,-.23222455E-4,-.901E-5,0
